[{"OBJECT_NAME":"KUIPER-00149","OBJECT_ID":"2025-228X","EPOCH":"2026-03-09T21:19:04.016352","MEAN_MOTION":14.80004702,"ECCENTRICITY":0.00017534,"INCLINATION":51.9019,"RA_OF_ASC_NODE":337.2239,"ARG_OF_PERICENTER":84.5973,"MEAN_ANOMALY":275.5189,"EPHEMERIS_TYPE":0,"CLASSIFICATION_TYPE":"U","NORAD_CAT_ID":65968,"ELEMENT_SET_NO":999,"REV_AT_EPOCH":2357,"BSTAR":0.00078763897,"MEAN_MOTION_DOT":5.798e-5,"MEAN_MOTION_DDOT":0},{"OBJECT_NAME":"FENGYUN 1C DEB","OBJECT_ID":"1999-025EPA","EPOCH":"2026-03-08T09:41:28.506624","MEAN_MOTION":14.82661962,"ECCENTRICITY":0.00545777,"INCLINATION":99.0797,"RA_OF_ASC_NODE":312.9561,"ARG_OF_PERICENTER":72.2995,"MEAN_ANOMALY":288.4163,"EPHEMERIS_TYPE":0,"CLASSIFICATION_TYPE":"U","NORAD_CAT_ID":37925,"ELEMENT_SET_NO":999,"REV_AT_EPOCH":66951,"BSTAR":0.0023039613,"MEAN_MOTION_DOT":0.00019041,"MEAN_MOTION_DDOT":0}]
